{
  "type": "FeatureCollection",
  "name": "Location",
  "crs": {
    "type": "name",
    "properties": {
      "name": "urn:ogc:def:crs:OGC:1.3:CRS84"
    }
  },
  "features": [
    {
      "type": "Feature",
      "properties": {
        "id": null,
        "point": "Chaisang"
      },
      "geometry": {
        "type": "Point",
        "coordinates": [
          115.45998794434404,
          29.888042762215417
        ]
      }
    },
    {
      "type": "Feature",
      "properties": {
        "id": null,
        "point": "Fankou"
      },
      "geometry": {
        "type": "Point",
        "coordinates": [
          114.45471093103352,
          30.550506416148156
        ]
      }
    },
    {
      "type": "Feature",
      "properties": {
        "id": null,
        "point": "Xiakou"
      },
      "geometry": {
        "type": "Point",
        "coordinates": [
          113.97755179568337,
          30.661689127297706
        ]
      }
    },
    {
      "type": "Feature",
      "properties": {
        "id": null,
        "point": "RedCliffs"
      },
      "geometry": {
        "type": "Point",
        "coordinates": [
          113.50965788626233,
          29.90194060110911
        ]
      }
    },
    {
      "type": "Feature",
      "properties": {
        "id": null,
        "point": "Nanping_mountain"
      },
      "geometry": {
        "type": "Point",
        "coordinates": [
          113.47722959551038,
          29.846349245534334
        ]
      }
    },
    {
      "type": "Feature",
      "properties": {
        "id": null,
        "point": "Poyang_lake"
      },
      "geometry": {
        "type": "Point",
        "coordinates": [
          116.03906456491461,
          29.489638047262858
        ]
      }
    },
    {
      "type": "Feature",
      "properties": {
        "id": null,
        "point": "Jiangling"
      },
      "geometry": {
        "type": "Point",
        "coordinates": [
          112.19,
          30.34
        ]
      }
    },
    {
      "type": "Feature",
      "properties": {
        "id": null,
        "point": "Huarong_Road"
      },
      "geometry": {
        "type": "Point",
        "coordinates": [
          112.53,
          29.53
        ]
      }
    },
    {
      "type": "Feature",
      "properties": {
        "id": null,
        "point": "Chaisang (council chamber)"
      },
      "geometry": {
        "type": "Point",
        "coordinates": [
          115.471142,
          29.859543
        ]
      }
    },
    {
      "type": "Feature",
      "properties": {
        "id": null,
        "point": "Chaisang (council chamber / private walk)"
      },
      "geometry": {
        "type": "Point",
        "coordinates": [
          115.44199,
          29.871435
        ]
      }
    },
    {
      "type": "Feature",
      "properties": {
        "id": null,
        "point": "Chaisang (assembly hall)"
      },
      "geometry": {
        "type": "Point",
        "coordinates": [
          115.478906,
          29.898645
        ]
      }
    },
    {
      "type": "Feature",
      "properties": {
        "id": null,
        "point": "Chaisang (audience chamber)"
      },
      "geometry": {
        "type": "Point",
        "coordinates": [
          115.491362,
          29.863259
        ]
      }
    },
    {
      "type": "Feature",
      "properties": {
        "id": null,
        "point": "Chaisang (palace council chamber)"
      },
      "geometry": {
        "type": "Point",
        "coordinates": [
          115.453742,
          29.859831
        ]
      }
    },
    {
      "type": "Feature",
      "properties": {
        "id": null,
        "point": "Chaisang (private apartments)"
      },
      "geometry": {
        "type": "Point",
        "coordinates": [
          115.437479,
          29.888364
        ]
      }
    },
    {
      "type": "Feature",
      "properties": {
        "id": null,
        "point": "Chaisang (guest-house)"
      },
      "geometry": {
        "type": "Point",
        "coordinates": [
          115.422111,
          29.869973
        ]
      }
    },
    {
      "type": "Feature",
      "properties": {
        "id": null,
        "point": "Chaisang (Zhou Yu's quarters)"
      },
      "geometry": {
        "type": "Point",
        "coordinates": [
          115.471979,
          29.890739
        ]
      }
    },
    {
      "type": "Feature",
      "properties": {
        "id": null,
        "point": "Chaisang (Zhou Yu's quarters → audience chamber)"
      },
      "geometry": {
        "type": "Point",
        "coordinates": [
          115.437623,
          29.893399
        ]
      }
    },
    {
      "type": "Feature",
      "properties": {
        "id": null,
        "point": "Chaisang (Zhou Yu's quarters → palace)"
      },
      "geometry": {
        "type": "Point",
        "coordinates": [
          115.484742,
          29.858433
        ]
      }
    },
    {
      "type": "Feature",
      "properties": {
        "id": null,
        "point": "Chaisang (boat, assembly hall, guest-house)"
      },
      "geometry": {
        "type": "Point",
        "coordinates": [
          115.484453,
          29.899931
        ]
      }
    },
    {
      "type": "Feature",
      "properties": {
        "id": null,
        "point": "Western Hills (mountain hut)"
      },
      "geometry": {
        "type": "Point",
        "coordinates": [
          115.403598,
          29.894262
        ]
      }
    },
    {
      "type": "Feature",
      "properties": {
        "id": null,
        "point": "Fankou (Liu Bei's camp)"
      },
      "geometry": {
        "type": "Point",
        "coordinates": [
          114.472999,
          30.54397
        ]
      }
    },
    {
      "type": "Feature",
      "properties": {
        "id": null,
        "point": "Fankou / Wu naval camp riverbank"
      },
      "geometry": {
        "type": "Point",
        "coordinates": [
          114.408421,
          30.494375
        ]
      }
    },
    {
      "type": "Feature",
      "properties": {
        "id": null,
        "point": "Wu naval camp, Three Gorges"
      },
      "geometry": {
        "type": "Point",
        "coordinates": [
          113.570508,
          29.88609
        ]
      }
    },
    {
      "type": "Feature",
      "properties": {
        "id": null,
        "point": "Wu naval camp (Zhou Yu's tent)"
      },
      "geometry": {
        "type": "Point",
        "coordinates": [
          113.568086,
          29.89113
        ]
      }
    },
    {
      "type": "Feature",
      "properties": {
        "id": null,
        "point": "Wu naval camp (Huang Gai's tent)"
      },
      "geometry": {
        "type": "Point",
        "coordinates": [
          113.551832,
          29.900865
        ]
      }
    },
    {
      "type": "Feature",
      "properties": {
        "id": null,
        "point": "Wu naval camp (Gan Ning's quarters)"
      },
      "geometry": {
        "type": "Point",
        "coordinates": [
          113.54237,
          29.884022
        ]
      }
    },
    {
      "type": "Feature",
      "properties": {
        "id": null,
        "point": "Southern Hills (Seven-Star Altar)"
      },
      "geometry": {
        "type": "Point",
        "coordinates": [
          113.582834,
          29.856681
        ]
      }
    },
    {
      "type": "Feature",
      "properties": {
        "id": null,
        "point": "Cao Cao's camp, north bank"
      },
      "geometry": {
        "type": "Point",
        "coordinates": [
          113.51136,
          29.935035
        ]
      }
    },
    {
      "type": "Feature",
      "properties": {
        "id": null,
        "point": "Cao Cao's camp, north bank (waterfront)"
      },
      "geometry": {
        "type": "Point",
        "coordinates": [
          113.501932,
          29.913774
        ]
      }
    },
    {
      "type": "Feature",
      "properties": {
        "id": null,
        "point": "Yangtze River (Cao Cao's flagship)"
      },
      "geometry": {
        "type": "Point",
        "coordinates": [
          113.473332,
          29.923516
        ]
      }
    },
    {
      "type": "Feature",
      "properties": {
        "id": null,
        "point": "Black Forest, north bank"
      },
      "geometry": {
        "type": "Point",
        "coordinates": [
          113.44285,
          29.951252
        ]
      }
    },
    {
      "type": "Feature",
      "properties": {
        "id": null,
        "point": "Yangtze River (Red Cliffs battle)"
      },
      "geometry": {
        "type": "Point",
        "coordinates": [
          113.485718,
          29.89528
        ]
      }
    },
    {
      "type": "Feature",
      "properties": {
        "id": null,
        "point": "Yangtze River (Red Cliffs, Han Dang's ship)"
      },
      "geometry": {
        "type": "Point",
        "coordinates": [
          113.517799,
          29.897886
        ]
      }
    },
    {
      "type": "Feature",
      "properties": {
        "id": null,
        "point": "Yangtze River (fog arrow operation)"
      },
      "geometry": {
        "type": "Point",
        "coordinates": [
          113.501869,
          29.893226
        ]
      }
    },
    {
      "type": "Feature",
      "properties": {
        "id": null,
        "point": "Yangtze River (pursuit from altar)"
      },
      "geometry": {
        "type": "Point",
        "coordinates": [
          113.495677,
          29.91504
        ]
      }
    },
    {
      "type": "Feature",
      "properties": {
        "id": null,
        "point": "Cross-faction (letter: Jiangling to Chaisang)"
      },
      "geometry": {
        "type": "Point",
        "coordinates": [
          114.493705,
          29.956306
        ]
      }
    },
    {
      "type": "Feature",
      "properties": {
        "id": null,
        "point": "Cross-faction (letter: north bank to Three Gorges)"
      },
      "geometry": {
        "type": "Point",
        "coordinates": [
          114.465091,
          29.911106
        ]
      }
    },
    {
      "type": "Feature",
      "properties": {
        "id": null,
        "point": "Cross-faction (letter: Wu camp to north bank)"
      },
      "geometry": {
        "type": "Point",
        "coordinates": [
          114.414627,
          29.877119
        ]
      }
    },
    {
      "type": "Feature",
      "properties": {
        "id": null,
        "point": "Jiangling (city fortress)"
      },
      "geometry": {
        "type": "Point",
        "coordinates": [
          112.209581,
          30.3456
        ]
      }
    },
    {
      "type": "Feature",
      "properties": {
        "id": null,
        "point": "Huarong Road (mountain pass)"
      },
      "geometry": {
        "type": "Point",
        "coordinates": [
          112.532278,
          29.537385
        ]
      }
    }
  ]
}