{
"type": "FeatureCollection",
"name": "LuSu_move_location",
"crs": { "type": "name", "properties": { "name": "urn:ogc:def:crs:OGC:1.3:CRS84" } },
"features": [
{ "type": "Feature", "properties": { "id": null, "LuSu_area": "v1" }, "geometry": { "type": "Point", "coordinates": [ 113.809160818350705, 30.130761977072698 ] } },
{ "type": "Feature", "properties": { "id": null, "LuSu_area": "v2" }, "geometry": { "type": "Point", "coordinates": [ 113.342299595569699, 29.741710958088525 ] } },
{ "type": "Feature", "properties": { "id": null, "LuSu_area": "v2" }, "geometry": { "type": "Point", "coordinates": [ 113.684664492275772, 29.866207284163458 ] } }
]
}
